H1 CPF 01  gfz 2022 05 05 00  6251 tandemx   
H2 1003001  6202 36605    2022 05 05 00 59 42 2022 05 10 00 00 42   120 1 1  0 0 0
H9
10 0 59706  79182.000000  0    3401272.162  -4893664.390  -3464696.856
10 0 59706  79302.000000  0    3470697.641  -5329861.634  -2656607.314
10 0 59706  79422.000000  0    3472793.868  -5673774.807  -1801879.718
10 0 59706  79542.000000  0    3409146.144  -5918152.094   -915491.000
10 0 59706  79662.000000  0    3282608.448  -6057523.023    -13005.102
10 0 59706  79782.000000  0    3097224.412  -6088323.956    889706.827
10 0 59706  79902.000000  0    2858124.476  -6008987.146   1776752.815
10 0 59706  80022.000000  0    2571400.845  -5819989.128   2632510.471
10 0 59706  80142.000000  0    2243962.068  -5523856.094   3441910.404
10 0 59706  80262.000000  0    1883373.089  -5125128.938   4190706.964
10 0 59706  80382.000000  0    1497684.522  -4630288.937   4865733.049
10 0 59706  80502.000000  0    1095256.070  -4047645.042   5455132.811
10 0 59706  80622.000000  0     684576.522  -3387185.704   5948569.847
10 0 59706  80742.000000  0     274085.093  -2660397.948   6337403.253
10 0 59706  80862.000000  0    -128000.564  -1880061.363   6614831.890
10 0 59706  80982.000000  0    -513846.915  -1060020.162   6776006.981
10 0 59706  81102.000000  0    -876155.804   -214935.968   6818113.047
10 0 59706  81222.000000  0   -1208301.520    639975.406   6740414.273
10 0 59706  81342.000000  0   -1504451.545   1489217.677   6544266.185
10 0 59706  81462.000000  0   -1759668.893   2317294.162   6233093.431
10 0 59706  81582.000000  0   -1969995.091   3108990.516   5812333.754
10 0 59706  81702.000000  0   -2132511.874   3849655.585   5289348.032
10 0 59706  81822.000000  0   -2245381.271   4525476.108   4673298.581
10 0 59706  81942.000000  0   -2307863.345   5123740.999   3974994.207
10 0 59706  82062.000000  0   -2320310.518   5633088.723   3206704.148
10 0 59706  82182.000000  0   -2284138.567   6043731.573   2381942.828
10 0 59706  82302.000000  0   -2201774.815   6347651.964   1515230.470
10 0 59706  82422.000000  0   -2076584.188   6538766.295    621832.825
10 0 59706  82542.000000  0   -1912775.118   6613051.553   -282514.418
10 0 59706  82662.000000  0   -1715288.020   6568631.753  -1181891.245
10 0 59706  82782.000000  0   -1489668.230   6405821.139  -2060485.118
10 0 59706  82902.000000  0   -1241926.302   6127118.117  -2902878.278
10 0 59706  83022.000000  0    -978391.549   5737156.733  -3694321.137
10 0 59706  83142.000000  0    -705562.188   5242619.171  -4420991.100
10 0 59706  83262.000000  0    -429955.542   4652108.836  -5070231.528
10 0 59706  83382.000000  0    -157961.324   3975989.698  -5630766.026
10 0 59706  83502.000000  0     104298.841   3226194.616  -6092886.427
10 0 59706  83622.000000  0     351102.122   2416006.544  -6448610.187
10 0 59706  83742.000000  0     577242.477   1559819.696  -6691806.002
10 0 59706  83862.000000  0     778135.168    672884.761  -6818289.638
10 0 59706  83982.000000  0     949905.452   -228959.347  -6825888.065
10 0 59706  84102.000000  0    1089460.375  -1129563.063  -6714472.284
10 0 59706  84222.000000  0    1194542.637  -2012747.840  -6485957.505
10 0 59706  84342.000000  0    1263766.532  -2862588.223  -6144274.241
10 0 59706  84462.000000  0    1296635.815  -3663693.999  -5695310.204
10 0 59706  84582.000000  0    1293541.278  -4401488.677  -5146818.856
10 0 59706  84702.000000  0    1255740.086  -5062475.598  -4508295.662
10 0 59706  84822.000000  0    1185316.184  -5634490.040  -3790825.743
10 0 59706  84942.000000  0    1085121.424  -6106932.385  -3006900.596
10 0 59706  85062.000000  0     958699.608  -6470975.491  -2170207.178
10 0 59706  85182.000000  0     810194.736  -6719742.390  -1295392.005
10 0 59706  85302.000000  0     644244.492  -6848448.334   -397803.287
10 0 59706  85422.000000  0     465861.889  -6854502.186    506783.048
10 0 59706  85542.000000  0     280308.196  -6737565.401   1402447.206
10 0 59706  85662.000000  0      92960.186  -6499566.530   2273414.559
10 0 59706  85782.000000  0     -90824.879  -6144669.262   3104343.705
10 0 59706  85902.000000  0    -265843.043  -5679193.112   3880605.373
10 0 59706  86022.000000  0    -427173.101  -5111492.093   4588543.587
10 0 59706  86142.000000  0    -570297.823  -4451795.803   5215718.305
10 0 59706  86262.000000  0    -691214.002  -3712015.234   5751123.393
10 0 59706  86382.000000  0    -786529.392  -2905517.785   6185377.752
10 0 59707    102.000000  0    -853544.128  -2046876.562   6510883.149
10 0 59707    222.000000  0    -890315.191  -1151603.181   6721949.609
10 0 59707    342.000000  0    -895703.446   -235865.776   6814890.356
10 0 59707    462.000000  0    -869402.565    683804.104   6788082.697
10 0 59707    582.000000  0    -811947.772   1590809.763   6641994.669
10 0 59707    702.000000  0    -724704.786   2468788.440   6379177.219
10 0 59707    822.000000  0    -609839.757   3301906.349   6004222.444
10 0 59707    942.000000  0    -470270.852   4075145.958   5523688.234
10 0 59707   1062.000000  0    -309601.815   4774580.060   4945988.891
10 0 59707   1182.000000  0    -132038.729   5387629.365   4281254.577
10 0 59707   1302.000000  0      57708.926   5903297.118   3541156.301
10 0 59707   1422.000000  0     254539.485   6312373.773   2738706.295
10 0 59707   1542.000000  0     453081.631   6607617.378   1888029.169
10 0 59707   1662.000000  0     647826.324   6783889.209   1004106.110
10 0 59707   1782.000000  0     833262.688   6838248.449    102504.975
10 0 59707   1902.000000  0    1004015.833   6770003.644   -800902.026
10 0 59707   2022.000000  0    1154981.520   6580718.275  -1690226.538
10 0 59707   2142.000000  0    1281454.596   6274171.851  -2549850.881
10 0 59707   2262.000000  0    1379248.630   5856277.426  -3364708.416
10 0 59707   2382.000000  0    1444803.902   5334957.325  -4120551.116
10 0 59707   2502.000000  0    1475281.217   4719980.860  -4804198.701
10 0 59707   2622.000000  0    1468639.136   4022768.750  -5403763.854
10 0 59707   2742.000000  0    1423693.052   3256171.324  -5908850.805
10 0 59707   2862.000000  0    1340155.365   2434224.021  -6310726.037
10 0 59707   2982.000000  0    1218655.751   1571886.112  -6602456.902
10 0 59707   3102.000000  0    1060742.417    684769.571  -6779020.289
10 0 59707   3222.000000  0     868863.733   -211140.409  -6837380.677
10 0 59707   3342.000000  0     646330.591  -1099768.266  -6776535.901
10 0 59707   3462.000000  0     397260.101  -1965229.129  -6597530.823
10 0 59707   3582.000000  0     126502.284  -2792104.052  -6303441.757
10 0 59707   3702.000000  0    -160451.060  -3565710.259  -5899331.525
10 0 59707   3822.000000  0    -457573.118  -4272359.975  -5392170.404
10 0 59707   3942.000000  0    -758422.363  -4899603.464  -4790727.292
10 0 59707   4062.000000  0   -1056275.931  -5436453.894  -4105429.901
10 0 59707   4182.000000  0   -1344273.404  -5873588.634  -3348194.136
10 0 59707   4302.000000  0   -1615567.692  -6203521.973  -2532224.719
10 0 59707   4422.000000  0   -1863480.039  -6420745.745  -1671789.970
10 0 59707   4542.000000  0   -2081655.452  -6521833.927   -781972.876
10 0 59707   4662.000000  0   -2264214.525  -6505506.903    121596.957
10 0 59707   4782.000000  0   -2405898.036  -6372652.587   1023024.512
10 0 59707   4902.000000  0   -2502200.163  -6126303.742   1906437.435
10 0 59707   5022.000000  0   -2549486.730  -5771571.742   2756274.811
10 0 59707   5142.000000  0   -2545095.054  -5315538.251   3557569.750
10 0 59707   5262.000000  0   -2487412.818  -4767108.077   4296219.131
10 0 59707   5382.000000  0   -2375934.710  -4136827.938   4959235.079
10 0 59707   5502.000000  0   -2211296.173  -3436675.531   5534974.608
10 0 59707   5622.000000  0   -1995282.124  -2679822.480   6013342.130
10 0 59707   5742.000000  0   -1730810.830  -1880379.932   6385961.329
10 0 59707   5862.000000  0   -1421894.279  -1053131.394   6646316.714
10 0 59707   5982.000000  0   -1073576.316   -213255.367   6789861.454
10 0 59707   6102.000000  0    -691850.315    623953.548   6814090.279
10 0 59707   6222.000000  0    -283556.161   1443362.191   6718581.350
10 0 59707   6342.000000  0     143742.406   2230272.280   6505003.403
10 0 59707   6462.000000  0     581897.688   2970684.033   6177087.988
10 0 59707   6582.000000  0    1022332.219   3651545.692   5740568.328
10 0 59707   6702.000000  0    1456205.243   4260986.810   5203084.701
10 0 59707   6822.000000  0    1874588.980   4788530.453   4574056.813
10 0 59707   6942.000000  0    2268651.802   5225280.422   3864523.436
10 0 59707   7062.000000  0    2629844.074   5564077.591   3086952.856
10 0 59707   7182.000000  0    2950083.153   5799627.740   2255026.088
10 0 59707   7302.000000  0    3221932.858   5928591.823   1383391.241
10 0 59707   7422.000000  0    3438771.405   5949634.607    487399.588
10 0 59707   7542.000000  0    3594944.625   5863434.536   -417172.024
10 0 59707   7662.000000  0    3685901.352   5672652.119  -1314407.634
10 0 59707   7782.000000  0    3708306.255   5381858.739  -2188540.013
10 0 59707   7902.000000  0    3660128.262   4997427.749  -3024235.060
10 0 59707   8022.000000  0    3540701.307   4527390.077  -3806865.829
10 0 59707   8142.000000  0    3350756.397   3981259.129  -4522769.176
10 0 59707   8262.000000  0    3092426.019   3369831.589  -5159481.345
10 0 59707   8382.000000  0    2769220.274   2704967.162  -5705949.225
10 0 59707   8502.000000  0    2385976.339   1999353.214  -6152712.794
10 0 59707   8622.000000  0    1948782.224   1266260.052  -6492057.827
10 0 59707   8742.000000  0    1464877.947    519291.834  -6718136.546
10 0 59707   8862.000000  0     942535.961   -227861.924  -6827058.810
10 0 59707   8982.000000  0     390920.091   -961672.705  -6816952.457
10 0 59707   9102.000000  0    -180072.320  -1669011.937  -6687990.064
10 0 59707   9222.000000  0    -759982.725  -2337378.710  -6442386.431
99
